NORAD_CAT_ID,OBJECT_NAME,OBJECT_TYPE,EPOCH,MEAN_MOTION,ECCENTRICITY,INCLINATION,RA_OF_ASC_NODE,ARG_OF_PERICENTER,MEAN_ANOMALY,BSTAR,MEAN_MOTION_DOT,MEAN_MOTION_DDOT,TLE_LINE0,TLE_LINE1,TLE_LINE2,SEMIMAJOR_AXIS,PERIOD,APOGEE,PERIGEE,DECAYED
56468.0,STARLINK-5998,PAYLOAD,2023-12-07 13:25:57,14.98354011,0.0002874,70.0012,59.685,272.6552,87.4278,-0.00043765,-5.314e-05,0.0,0 STARLINK-5998,1 56468U 23064W   23341.55969159 -.00005314  00000-0 -43765-3 0  9999,2 56468  70.0012  59.6850 0002874 272.6552  87.4278 14.98354011 31954,6950.119,96.105,573.981,569.986,0.0
56468.0,STARLINK-5998,PAYLOAD,2023-12-08 11:51:49,14.98335651,0.0002652,70.0015,57.3287,265.991,94.0946,-5.5747e-05,-7.58e-06,0.0,0 STARLINK-5998,1 56468U 23064W   23342.49432850 -.00000758  00000-0 -55747-4 0  9997,2 56468  70.0015  57.3287 0002652 265.9910  94.0946 14.98335651 32454,6950.175,96.107,573.884,570.197,0.0
56468.0,STARLINK-5998,PAYLOAD,2023-12-08 13:27:58,14.98334127,0.0002738,70.0013,57.1599,268.9498,91.1347,-7.3161e-05,-9.66e-06,0.0,0 STARLINK-5998,1 56468U 23064W   23342.56108988 -.00000966  00000-0 -73161-4 0  9998,2 56468  70.0013  57.1599 0002738 268.9498  91.1347 14.98334127 32107,6950.18,96.107,573.948,570.142,0.0
56468.0,STARLINK-5998,PAYLOAD,2023-12-08 15:04:06,14.98333914,0.0002943,70.0006,56.9902,274.8151,85.2672,-5.2556e-05,-7.2e-06,0.0,0 STARLINK-5998,1 56468U 23064W   23342.62784938 -.00000720  00000-0 -52556-4 0  9993,2 56468  70.0006  56.9902 0002943 274.8151  85.2672 14.98333914 32113,6950.181,96.107,574.091,570.0,0.0
56468.0,STARLINK-5998,PAYLOAD,2023-12-09 11:53:51,14.98326738,0.0003031,70.0005,54.8013,274.5498,85.5314,-1.5527e-05,-2.78e-06,0.0,0 STARLINK-5998,1 56468U 23064W   23343.49573214 -.00000278  00000-0 -15527-4 0  9997,2 56468  70.0005  54.8013 0003031 274.5498  85.5314 14.98326738 32608,6950.203,96.107,574.175,569.961,0.0
56468.0,STARLINK-5998,PAYLOAD,2023-12-09 13:29:59,14.98327076,0.000303,70.0005,54.633,274.6344,85.4469,-1.159e-05,-2.31e-06,0.0,0 STARLINK-5998,1 56468U 23064W   23343.56249190 -.00000231  00000-0 -11590-4 0  9993,2 56468  70.0005  54.6330 0003030 274.6344  85.4469 14.98327076 32255,6950.202,96.107,574.173,569.961,0.0
56468.0,STARLINK-5998,PAYLOAD,2023-12-10 11:55:51,14.98334093,0.0003102,70.0004,52.2763,276.1852,83.8953,2.6838e-05,2.27e-06,0.0,0 STARLINK-5998,1 56468U 23064W   23344.49712566  .00000227  00000-0  26838-4 0  9992,2 56468  70.0004  52.2763 0003102 276.1852  83.8953 14.98334093 32751,6950.18,96.107,574.201,569.889,0.0
56468.0,STARLINK-5998,PAYLOAD,2023-12-10 13:31:59,14.98334597,0.0003087,70.0005,52.1081,275.9827,84.098,3.2945e-05,3e-06,0.0,0 STARLINK-5998,1 56468U 23064W   23344.56388497  .00000300  00000-0  32945-4 0  9990,2 56468  70.0005  52.1081 0003087 275.9827  84.0980 14.98334597 32409,6950.179,96.107,574.189,569.898,0.0
56468.0,STARLINK-5998,PAYLOAD,2023-12-10 15:08:07,14.98334309,0.0003104,70.0005,51.9396,277.378,82.7026,2.9165e-05,2.55e-06,0.0,0 STARLINK-5998,1 56468U 23064W   23344.63064516  .00000255  00000-0  29165-4 0  9990,2 56468  70.0005  51.9396 0003104 277.3780  82.7026 14.98334309 32417,6950.18,96.107,574.202,569.887,0.0
56468.0,STARLINK-5998,PAYLOAD,2023-12-11 11:57:52,14.98329931,0.0003208,69.9999,49.7513,275.3337,84.7456,2.0674e-05,1.54e-06,0.0,0 STARLINK-5998,1 56468U 23064W   23345.49852675  .00000154  00000-0  20674-4 0  9990,2 56468  69.9999  49.7513 0003208 275.3337  84.7456 14.98329931 32901,6950.193,96.107,574.288,569.828,0.0
56468.0,STARLINK-5998,PAYLOAD,2023-12-11 13:34:00,14.98326476,0.0003118,70.0001,49.5846,272.3698,87.7104,7.6682e-05,8.22e-06,0.0,0 STARLINK-5998,1 56468U 23064W   23345.56528713  .00000822  00000-0  76682-4 0  9993,2 56468  70.0001  49.5846 0003118 272.3698  87.7104 14.98326476 32557,6950.204,96.107,574.236,569.902,0.0
56468.0,STARLINK-5998,PAYLOAD,2023-12-12 11:59:53,14.98330883,0.0003101,70.0001,47.228,267.2489,92.8315,-1.9734e-05,-3.28e-06,0.0,0 STARLINK-5998,1 56468U 23064W   23346.49992524 -.00000328  00000-0 -19734-4 0  9999,2 56468  70.0001  47.2280 0003101 267.2489  92.8315 14.98330883 33051,6950.19,96.107,574.21,569.9,0.0
56468.0,STARLINK-5998,PAYLOAD,2023-12-12 13:36:01,14.98330386,0.0003127,70.0,47.0593,270.113,89.9671,-2.9371e-05,-4.43e-06,0.0,0 STARLINK-5998,1 56468U 23064W   23346.56668599 -.00000443  00000-0 -29371-4 0  9995,2 56468  70.0000  47.0593 0003127 270.1130  89.9671 14.98330386 32700,6950.192,96.107,574.23,569.883,0.0
56468.0,STARLINK-5998,PAYLOAD,2023-12-13 12:01:54,14.983315,0.0003156,69.9998,44.7022,269.6788,90.401,1.2925e-05,6.1e-07,0.0,0 STARLINK-5998,1 56468U 23064W   23347.50132302  .00000061  00000-0  12925-4 0  9999,2 56468  69.9998  44.7022 0003156 269.6788  90.4010 14.98331500 33207,6950.188,96.107,574.247,569.86,0.0
56468.0,STARLINK-5998,PAYLOAD,2023-12-13 13:38:02,14.98331446,0.0003165,69.9998,44.5338,270.214,89.8657,1.195e-05,5e-07,0.0,0 STARLINK-5998,1 56468U 23064W   23347.56808303  .00000050  00000-0  11950-4 0  9991,2 56468  69.9998  44.5338 0003165 270.2140  89.8657 14.98331446 32853,6950.188,96.107,574.253,569.854,0.0
56468.0,STARLINK-5998,PAYLOAD,2023-12-14 12:03:52,14.9836943,0.0002992,69.9999,42.1769,269.2465,90.8352,0.00043596,5.118e-05,0.0,0 STARLINK-5998,1 56468U 23064W   23348.50268554  .00005118  00000-0  43596-3 0  9994,2 56468  69.9999  42.1769 0002992 269.2465  90.8352 14.98369430 33355,6950.071,96.104,574.015,569.856,0.0
56468.0,STARLINK-5998,PAYLOAD,2023-12-14 13:39:59,14.98370785,0.000301,69.9998,42.0086,268.7552,91.3263,0.00044192,5.189e-05,0.0,0 STARLINK-5998,1 56468U 23064W   23348.56944302  .00005189  00000-0  44192-3 0  9993,2 56468  69.9998  42.0086 0003010 268.7552  91.3263 14.98370785 33002,6950.067,96.104,574.024,569.84,0.0
56468.0,STARLINK-5998,PAYLOAD,2023-12-15 04:05:15,14.98332271,0.0002817,70.0003,40.4943,268.3338,91.7499,-1.3302e-05,-2.52e-06,0.0,0 STARLINK-5998,1 56468U 23064W   23349.17031365 -.00000252  00000-0 -13302-4 0  9995,2 56468  70.0003  40.4943 0002817 268.3338  91.7499 14.98332271 33450,6950.186,96.107,574.009,570.093,0.0
56468.0,STARLINK-5998,PAYLOAD,2023-12-15 12:05:56,14.98325528,0.0003742,69.9983,39.6508,279.0427,81.0309,-0.00015055,-1.889e-05,0.0,0 STARLINK-5998,1 56468U 23064W   23349.50412125 -.00001889  00000-0 -15055-3 0  9992,2 56468  69.9983  39.6508 0003742 279.0427  81.0309 14.98325528 33502,6950.207,96.107,574.672,569.471,0.0
56468.0,STARLINK-5998,PAYLOAD,2023-12-15 13:42:04,14.98327175,0.0003759,69.9982,39.4833,277.3199,82.7533,-0.00015888,-1.988e-05,0.0,0 STARLINK-5998,1 56468U 23064W   23349.57088101 -.00001988  00000-0 -15888-3 0  9996,2 56468  69.9982  39.4833 0003759 277.3199  82.7533 14.98327175 33153,6950.202,96.107,574.679,569.454,0.0
56468.0,STARLINK-5998,PAYLOAD,2023-12-16 12:07:56,14.9834429,0.0003095,69.9994,37.1277,267.2864,92.794,-0.00041862,-5.086e-05,0.0,0 STARLINK-5998,1 56468U 23064W   23350.50552083 -.00005086  00000-0 -41862-3 0  9990,2 56468  69.9994  37.1277 0003095 267.2864  92.7940 14.98344290 33658,6950.149,96.106,574.165,569.863,0.0
56468.0,STARLINK-5998,PAYLOAD,2023-12-16 13:44:05,14.9834462,0.0003217,69.9991,36.959,269.3213,90.7577,-0.00043322,-5.26e-05,0.0,0 STARLINK-5998,1 56468U 23064W   23350.57228052 -.00005260  00000-0 -43322-3 0  9990,2 56468  69.9991  36.9590 0003217 269.3213  90.7577 14.98344620 33300,6950.148,96.106,574.249,569.777,0.0
56468.0,STARLINK-5998,PAYLOAD,2023-12-17 04:09:17,14.98318676,0.0003061,69.9993,35.4432,268.8241,91.2567,0.00010842,1.2e-05,0.0,0 STARLINK-5998,1 56468U 23064W   23351.17312170  .00001200  00000-0  10842-3 0  9991,2 56468  69.9993  35.4432 0003061 268.8241  91.2567 14.98318676 33759,6950.228,96.108,574.22,569.965,0.0
56468.0,STARLINK-5998,PAYLOAD,2023-12-17 12:09:57,14.98323009,0.0002974,69.9995,34.6019,266.9592,93.1227,0.00015045,1.702e-05,0.0,0 STARLINK-5998,1 56468U 23064W   23351.50691993  .00001702  00000-0  15045-3 0  9998,2 56468  69.9995  34.6019 0002974 266.9592  93.1227 14.98323009 33449,6950.215,96.107,574.147,570.013,0.0
56468.0,STARLINK-5998,PAYLOAD,2023-12-18 04:11:18,14.98328895,0.0003041,69.9993,32.9186,267.7966,92.2845,0.00012349,1.381e-05,0.0,0 STARLINK-5998,1 56468U 23064W   23352.17451904  .00001381  00000-0  12349-3 0  9995,2 56468  69.9993  32.9186 0003041 267.7966  92.2845 14.98328895 33908,6950.196,96.107,574.175,569.948,0.0
56468.0,STARLINK-5998,PAYLOAD,2023-12-18 12:11:58,14.9833274,0.0002964,69.9995,32.0769,265.6639,94.4181,0.00015846,1.798e-05,0.0,0 STARLINK-5998,1 56468U 23064W   23352.50831528  .00001798  00000-0  15846-3 0  9993,2 56468  69.9995  32.0769 0002964 265.6639  94.4181 14.98332740 33591,6950.184,96.107,574.109,569.989,0.0
56468.0,STARLINK-5998,PAYLOAD,2023-12-19 04:13:20,14.98325063,0.0002647,70.0006,30.3951,250.0808,110.0066,-5.0092e-05,-6.9e-06,0.0,0 STARLINK-5998,1 56468U 23064W   23353.17592619 -.00000690  00000-0 -50092-4 0  9997,2 56468  70.0006  30.3951 0002647 250.0808 110.0066 14.98325063 34054,6950.208,96.107,573.913,570.233,0.0
56468.0,STARLINK-5998,PAYLOAD,2023-12-19 12:14:00,14.98320975,0.0002706,70.0005,29.5534,252.6942,107.3921,-9.609e-05,-1.239e-05,0.0,0 STARLINK-5998,1 56468U 23064W   23353.50973125 -.00001239  00000-0 -96090-4 0  9997,2 56468  70.0005  29.5534 0002706 252.6942 107.3921 14.98320975 33744,6950.221,96.108,573.967,570.205,0.0
56468.0,STARLINK-5998,PAYLOAD,2023-12-20 04:15:20,14.9833253,0.0002768,70.0002,27.8691,256.5939,103.4912,-5.2661e-05,-7.21e-06,0.0,0 STARLINK-5998,1 56468U 23064W   23354.17732360 -.00000721  00000-0 -52661-4 0  9996,2 56468  70.0002  27.8691 0002768 256.5939 103.4912 14.98332530 34202,6950.185,96.107,573.974,570.126,0.0
56468.0,STARLINK-5998,PAYLOAD,2023-12-20 12:16:01,14.98331893,0.0002783,70.0003,27.0272,258.2466,101.8381,-5.1653e-05,-7.09e-06,0.0,0 STARLINK-5998,1 56468U 23064W   23354.51112377 -.00000709  00000-0 -51653-4 0  9990,2 56468  70.0003  27.0272 0002783 258.2466 101.8381 14.98331893 33898,6950.187,96.107,573.986,570.118,0.0
